CCSDS_OMM_VERS = 2.0
CREATION_DATE  = 
ORIGINATOR     = 

OBJECT_NAME    = STARLINK-34767
OBJECT_ID      = 2025-263Y
CENTER_NAME    = EARTH
REF_FRAME      = TEME
TIME_SYSTEM    = UTC
MEAN_ELEMENT_THEORY = SGP/SGP4

EPOCH          = 2025-11-30T20:00:03.000384
MEAN_MOTION    = 15.75067262
ECCENTRICITY   = .0001017
INCLINATION    = 42.9986
RA_OF_ASC_NODE = 195.7120
ARG_OF_PERICENTER = 250.2204
MEAN_ANOMALY   = 79.0626

EPHEMERIS_TYPE = 0
CLASSIFICATION_TYPE = U
NORAD_CAT_ID   = 66507
ELEMENT_SET_NO = 999
REV_AT_EPOCH   = 372
BSTAR          = -.53395E-3
MEAN_MOTION_DOT = -.81801E-3
MEAN_MOTION_DDOT = 0

CCSDS_OMM_VERS = 2.0
CREATION_DATE  = 
ORIGINATOR     = 

OBJECT_NAME    = STARLINK-35608
OBJECT_ID      = 2025-263Z
CENTER_NAME    = EARTH
REF_FRAME      = TEME
TIME_SYSTEM    = UTC
MEAN_ELEMENT_THEORY = SGP/SGP4

EPOCH          = 2025-11-30T20:00:03.000384
MEAN_MOTION    = 15.75091469
ECCENTRICITY   = .0001849
INCLINATION    = 42.9987
RA_OF_ASC_NODE = 195.6986
ARG_OF_PERICENTER = 269.7312
MEAN_ANOMALY   = 65.2892

EPHEMERIS_TYPE = 0
CLASSIFICATION_TYPE = U
NORAD_CAT_ID   = 66508
ELEMENT_SET_NO = 999
REV_AT_EPOCH   = 372
BSTAR          = -.65205E-3
MEAN_MOTION_DOT = -.99696E-3
MEAN_MOTION_DDOT = 0

CCSDS_OMM_VERS = 2.0
CREATION_DATE  = 
ORIGINATOR     = 

OBJECT_NAME    = STARLINK-35598
OBJECT_ID      = 2025-263AA
CENTER_NAME    = EARTH
REF_FRAME      = TEME
TIME_SYSTEM    = UTC
MEAN_ELEMENT_THEORY = SGP/SGP4

EPOCH          = 2025-11-30T20:00:03.000384
MEAN_MOTION    = 15.75037659
ECCENTRICITY   = .0001043
INCLINATION    = 42.9986
RA_OF_ASC_NODE = 195.6774
ARG_OF_PERICENTER = 256.8683
MEAN_ANOMALY   = 85.8883

EPHEMERIS_TYPE = 0
CLASSIFICATION_TYPE = U
NORAD_CAT_ID   = 66509
ELEMENT_SET_NO = 999
REV_AT_EPOCH   = 372
BSTAR          = -.54514E-3
MEAN_MOTION_DOT = -.83383E-3
MEAN_MOTION_DDOT = 0

CCSDS_OMM_VERS = 2.0
CREATION_DATE  = 
ORIGINATOR     = 

OBJECT_NAME    = STARLINK-35600
OBJECT_ID      = 2025-263AB
CENTER_NAME    = EARTH
REF_FRAME      = TEME
TIME_SYSTEM    = UTC
MEAN_ELEMENT_THEORY = SGP/SGP4

EPOCH          = 2025-11-30T20:00:03.000384
MEAN_MOTION    = 15.75103517
ECCENTRICITY   = .0002111
INCLINATION    = 42.9984
RA_OF_ASC_NODE = 195.6927
ARG_OF_PERICENTER = 270.7039
MEAN_ANOMALY   = 66.2300

EPHEMERIS_TYPE = 0
CLASSIFICATION_TYPE = U
NORAD_CAT_ID   = 66510
ELEMENT_SET_NO = 999
REV_AT_EPOCH   = 372
BSTAR          = -.76691E-3
MEAN_MOTION_DOT = -.117003E-2
MEAN_MOTION_DDOT = 0

CCSDS_OMM_VERS = 2.0
CREATION_DATE  = 
ORIGINATOR     = 

OBJECT_NAME    = STARLINK-35444
OBJECT_ID      = 2025-263AC
CENTER_NAME    = EARTH
REF_FRAME      = TEME
TIME_SYSTEM    = UTC
MEAN_ELEMENT_THEORY = SGP/SGP4

EPOCH          = 2025-11-30T20:00:03.000384
MEAN_MOTION    = 15.75165931
ECCENTRICITY   = .000173
INCLINATION    = 42.9986
RA_OF_ASC_NODE = 195.6827
ARG_OF_PERICENTER = 255.2185
MEAN_ANOMALY   = 85.5263

EPHEMERIS_TYPE = 0
CLASSIFICATION_TYPE = U
NORAD_CAT_ID   = 66511
ELEMENT_SET_NO = 999
REV_AT_EPOCH   = 372
BSTAR          = -.13332E-2
MEAN_MOTION_DOT = -.201586E-2
MEAN_MOTION_DDOT = 0

CCSDS_OMM_VERS = 2.0
CREATION_DATE  = 
ORIGINATOR     = 

OBJECT_NAME    = STARLINK-35366
OBJECT_ID      = 2025-263AD
CENTER_NAME    = EARTH
REF_FRAME      = TEME
TIME_SYSTEM    = UTC
MEAN_ELEMENT_THEORY = SGP/SGP4

EPOCH          = 2025-11-30T20:00:03.000384
MEAN_MOTION    = 15.75089512
ECCENTRICITY   = .0001511
INCLINATION    = 42.9985
RA_OF_ASC_NODE = 195.6725
ARG_OF_PERICENTER = 262.7181
MEAN_ANOMALY   = 81.8782

EPHEMERIS_TYPE = 0
CLASSIFICATION_TYPE = U
NORAD_CAT_ID   = 66512
ELEMENT_SET_NO = 999
REV_AT_EPOCH   = 372
BSTAR          = -.5117E-3
MEAN_MOTION_DOT = -.78524E-3
MEAN_MOTION_DDOT = 0

CCSDS_OMM_VERS = 2.0
CREATION_DATE  = 
ORIGINATOR     = 

OBJECT_NAME    = STARLINK-35692
OBJECT_ID      = 2025-263AE
CENTER_NAME    = EARTH
REF_FRAME      = TEME
TIME_SYSTEM    = UTC
MEAN_ELEMENT_THEORY = SGP/SGP4

EPOCH          = 2025-11-30T20:00:03.000384
MEAN_MOTION    = 15.75115713
ECCENTRICITY   = .0001481
INCLINATION    = 42.9988
RA_OF_ASC_NODE = 195.6876
ARG_OF_PERICENTER = 258.1610
MEAN_ANOMALY   = 80.6945

EPHEMERIS_TYPE = 0
CLASSIFICATION_TYPE = U
NORAD_CAT_ID   = 66513
ELEMENT_SET_NO = 999
REV_AT_EPOCH   = 372
BSTAR          = -.96621E-3
MEAN_MOTION_DOT = -.146834E-2
MEAN_MOTION_DDOT = 0

CCSDS_OMM_VERS = 2.0
CREATION_DATE  = 
ORIGINATOR     = 

OBJECT_NAME    = SENTINEL-6B
OBJECT_ID      = 2025-264A
CENTER_NAME    = EARTH
REF_FRAME      = TEME
TIME_SYSTEM    = UTC
MEAN_ELEMENT_THEORY = SGP/SGP4

EPOCH          = 2025-11-30T17:23:33.679104
MEAN_MOTION    = 12.85877052
ECCENTRICITY   = .0011509
INCLINATION    = 66.0386
RA_OF_ASC_NODE = 187.5337
ARG_OF_PERICENTER = 268.9964
MEAN_ANOMALY   = 90.9736

EPHEMERIS_TYPE = 0
CLASSIFICATION_TYPE = U
NORAD_CAT_ID   = 66514
ELEMENT_SET_NO = 999
REV_AT_EPOCH   = 174
BSTAR          = .20915E-3
MEAN_MOTION_DOT = -.1E-6
MEAN_MOTION_DDOT = 0

CCSDS_OMM_VERS = 2.0
CREATION_DATE  = 
ORIGINATOR     = 

OBJECT_NAME    = STARLINK-35924
OBJECT_ID      = 2025-265A
CENTER_NAME    = EARTH
REF_FRAME      = TEME
TIME_SYSTEM    = UTC
MEAN_ELEMENT_THEORY = SGP/SGP4

EPOCH          = 2025-11-30T20:00:03.000384
MEAN_MOTION    = 15.78238264
ECCENTRICITY   = .0001712
INCLINATION    = 42.9996
RA_OF_ASC_NODE = 125.0291
ARG_OF_PERICENTER = 281.1479
MEAN_ANOMALY   = 74.2104

EPHEMERIS_TYPE = 0
CLASSIFICATION_TYPE = U
NORAD_CAT_ID   = 66516
ELEMENT_SET_NO = 999
REV_AT_EPOCH   = 306
BSTAR          = -.84207E-2
MEAN_MOTION_DOT = -.1332925E-1
MEAN_MOTION_DDOT = 0

CCSDS_OMM_VERS = 2.0
CREATION_DATE  = 
ORIGINATOR     = 

OBJECT_NAME    = STARLINK-35937
OBJECT_ID      = 2025-265B
CENTER_NAME    = EARTH
REF_FRAME      = TEME
TIME_SYSTEM    = UTC
MEAN_ELEMENT_THEORY = SGP/SGP4

EPOCH          = 2025-11-30T20:00:03.000384
MEAN_MOTION    = 15.78205977
ECCENTRICITY   = .0001739
INCLINATION    = 42.9997
RA_OF_ASC_NODE = 125.0245
ARG_OF_PERICENTER = 280.4654
MEAN_ANOMALY   = 76.9628

EPHEMERIS_TYPE = 0
CLASSIFICATION_TYPE = U
NORAD_CAT_ID   = 66517
ELEMENT_SET_NO = 999
REV_AT_EPOCH   = 308
BSTAR          = -.84554E-2
MEAN_MOTION_DOT = -.1336095E-1
MEAN_MOTION_DDOT = 0

CCSDS_OMM_VERS = 2.0
CREATION_DATE  = 
ORIGINATOR     = 

OBJECT_NAME    = STARLINK-35962
OBJECT_ID      = 2025-265C
CENTER_NAME    = EARTH
REF_FRAME      = TEME
TIME_SYSTEM    = UTC
MEAN_ELEMENT_THEORY = SGP/SGP4

EPOCH          = 2025-11-30T20:00:03.000384
MEAN_MOTION    = 15.78195523
ECCENTRICITY   = .0001735
INCLINATION    = 42.9997
RA_OF_ASC_NODE = 125.0192
ARG_OF_PERICENTER = 285.3306
MEAN_ANOMALY   = 74.0821

EPHEMERIS_TYPE = 0
CLASSIFICATION_TYPE = U
NORAD_CAT_ID   = 66518
ELEMENT_SET_NO = 999
REV_AT_EPOCH   = 308
BSTAR          = -.84819E-2
MEAN_MOTION_DOT = -.133927E-1
MEAN_MOTION_DDOT = 0

CCSDS_OMM_VERS = 2.0
CREATION_DATE  = 
ORIGINATOR     = 

OBJECT_NAME    = STARLINK-35931
OBJECT_ID      = 2025-265D
CENTER_NAME    = EARTH
REF_FRAME      = TEME
TIME_SYSTEM    = UTC
MEAN_ELEMENT_THEORY = SGP/SGP4

EPOCH          = 2025-11-30T20:00:03.000384
MEAN_MOTION    = 15.78153852
ECCENTRICITY   = .0001769
INCLINATION    = 42.9998
RA_OF_ASC_NODE = 125.0136
ARG_OF_PERICENTER = 277.4481
MEAN_ANOMALY   = 84.0907

EPHEMERIS_TYPE = 0
CLASSIFICATION_TYPE = U
NORAD_CAT_ID   = 66519
ELEMENT_SET_NO = 999
REV_AT_EPOCH   = 308
BSTAR          = -.8553E-2
MEAN_MOTION_DOT = -.1347032E-1
MEAN_MOTION_DDOT = 0

