STARLINK-34767          
1 66507U 25263Y   25334.83336806 -.00081801  00000+0 -53395-3 0  9993
2 66507  42.9986 195.7120 0001017 250.2204  79.0626 15.75067262  3726
STARLINK-35608          
1 66508U 25263Z   25334.83336806 -.00099696  00000+0 -65205-3 0  9998
2 66508  42.9987 195.6986 0001849 269.7312  65.2892 15.75091469  3723
STARLINK-35598          
1 66509U 25263AA  25334.83336806 -.00083383  00000+0 -54514-3 0  9996
2 66509  42.9986 195.6774 0001043 256.8683  85.8883 15.75037659  3721
STARLINK-35600          
1 66510U 25263AB  25334.83336806 -.00117003  00000+0 -76691-3 0  9995
2 66510  42.9984 195.6927 0002111 270.7039  66.2300 15.75103517  3722
STARLINK-35444          
1 66511U 25263AC  25334.83336806 -.00201586  00000+0 -13332-2 0  9998
2 66511  42.9986 195.6827 0001730 255.2185  85.5263 15.75165931  3720
STARLINK-35366          
1 66512U 25263AD  25334.83336806 -.00078524  00000+0 -51170-3 0  9996
2 66512  42.9985 195.6725 0001511 262.7181  81.8782 15.75089512  3728
STARLINK-35692          
1 66513U 25263AE  25334.83336806 -.00146834  00000+0 -96621-3 0  9997
2 66513  42.9988 195.6876 0001481 258.1610  80.6945 15.75115713  3722
SENTINEL-6B             
1 66514U 25264A   25334.72469536 -.00000010  00000+0  20915-3 0  9991
2 66514  66.0386 187.5337 0011509 268.9964  90.9736 12.85877052  1748
STARLINK-35924          
1 66516U 25265A   25334.83336806 -.01332925  00000+0 -84207-2 0  9997
2 66516  42.9996 125.0291 0001712 281.1479  74.2104 15.78238264  3061
STARLINK-35937          
1 66517U 25265B   25334.83336806 -.01336095  00000+0 -84554-2 0  9995
2 66517  42.9997 125.0245 0001739 280.4654  76.9628 15.78205977  3085
STARLINK-35962          
1 66518U 25265C   25334.83336806 -.01339270  00000+0 -84819-2 0  9998
2 66518  42.9997 125.0192 0001735 285.3306  74.0821 15.78195523  3080
STARLINK-35931          
1 66519U 25265D   25334.83336806 -.01347032  00000+0 -85530-2 0  9995
2 66519  42.9998 125.0136 0001769 277.4481  84.0907 15.78153852  3088
